[{"OBJECT_NAME":"STARLINK-3704","OBJECT_ID":"2022-025D","EPOCH":"2026-03-10T00:00:02.999808","MEAN_MOTION":15.08887845,"ECCENTRICITY":8.629e-5,"INCLINATION":53.0636,"RA_OF_ASC_NODE":34.439,"ARG_OF_PERICENTER":119.4207,"MEAN_ANOMALY":219.0687,"EPHEMERIS_TYPE":0,"CLASSIFICATION_TYPE":"U","NORAD_CAT_ID":51959,"ELEMENT_SET_NO":999,"REV_AT_EPOCH":554,"BSTAR":0.08095622,"MEAN_MOTION_DOT":0.0140974,"MEAN_MOTION_DDOT":0},{"OBJECT_NAME":"OBJECT B","OBJECT_ID":"2025-108B","EPOCH":"2026-03-09T22:57:20.569248","MEAN_MOTION":15.18732481,"ECCENTRICITY":0.00118477,"INCLINATION":97.4788,"RA_OF_ASC_NODE":145.8779,"ARG_OF_PERICENTER":0.6755,"MEAN_ANOMALY":359.4493,"EPHEMERIS_TYPE":0,"CLASSIFICATION_TYPE":"U","NORAD_CAT_ID":64088,"ELEMENT_SET_NO":999,"REV_AT_EPOCH":4430,"BSTAR":0.00058992219,"MEAN_MOTION_DOT":0.00012214,"MEAN_MOTION_DDOT":0}]
